     2              NAVIGATION DATA                         RINEX VERSION / TYPE
CCRINEXN V1.6.0 UX  CDDIS               03-FEB-20 18:31     PGM / RUN BY / DATE 
IGS BROADCAST EPHEMERIS FILE                                COMMENT             
    0.8382D-08 -0.7451D-08 -0.5960D-07  0.5960D-07          ION ALPHA           
    0.8806D+05 -0.3277D+05 -0.1966D+06  0.1966D+06          ION BETA            
    0.000000000000D+00 0.177635683940D-14   221184     2091 DELTA-UTC: A0,A1,T,W
    18                                                      LEAP SECONDS        
                                                            END OF HEADER       
16 20  2  2  4  0  0.0-0.120000913739D-03-0.409272615798D-11 0.000000000000D+00
    0.920000000000D+02 0.277500000000D+02 0.419446043040D-08-0.142018132238D+01
    0.138022005558D-05 0.113503009779D-01 0.474788248539D-05 0.515370698547D+04
    0.144000000000D+05 0.182539224625D-06 0.306729502056D+01-0.912696123123D-07
    0.980303616849D+00 0.291156250000D+03 0.595248874596D+00-0.797247494272D-08
    0.109647424398D-09 0.100000000000D+01 0.209100000000D+04 0.000000000000D+00
    0.200000000000D+01 0.000000000000D+00-0.107102096081D-07 0.920000000000D+02
    0.721800000000D+04 0.400000000000D+01 0.000000000000D+00 0.000000000000D+00
17 20  2  2  4  0  0.0 0.209021847695D-03 0.648014975013D-11 0.000000000000D+00
    0.740000000000D+02-0.290937500000D+02 0.401802450971D-08-0.243154272955D+01
   -0.139139592648D-05 0.134286555694D-01 0.707432627678D-05 0.515364660644D+04
    0.144000000000D+05 0.150874257088D-06-0.220116180380D+01 0.139698386192D-06
    0.984137736418D+00 0.251812500000D+03-0.165615630496D+01-0.768174854709D-08
   -0.714315468392D-11 0.100000000000D+01 0.209100000000D+04 0.000000000000D+00
    0.280000000000D+01 0.000000000000D+00-0.111758708954D-07 0.740000000000D+02
    0.721800000000D+04 0.400000000000D+01 0.000000000000D+00 0.000000000000D+00
18 20  2  2  4  0  0.0 0.381376594305D-06 0.204636307899D-11 0.000000000000D+00
    0.440000000000D+02-0.215937500000D+02 0.461376361035D-08 0.146256316949D+01
   -0.140257179737D-05 0.156637963373D-01 0.774487853050D-05 0.515364803505D+04
    0.144000000000D+05-0.186264514923D-06-0.126358451469D+01-0.396743416786D-06
    0.957137931631D+00 0.230218750000D+03 0.145271847690D+01-0.818034074403D-08
    0.173221501085D-09 0.100000000000D+01 0.209100000000D+04 0.000000000000D+00
    0.200000000000D+01 0.630000000000D+02-0.558793544769D-08 0.440000000000D+02
    0.721800000000D+04 0.400000000000D+01 0.000000000000D+00 0.000000000000D+00
19 20  2  2  4  0  0.0-0.204311218113D-03 0.511590769747D-11 0.000000000000D+00
    0.840000000000D+02-0.322812500000D+02 0.413410077332D-08 0.281672068315D+00
   -0.159628689289D-05 0.915692886338D-02 0.767409801483D-05 0.515367271805D+04
    0.144000000000D+05-0.894069671631D-07-0.215534238154D+01 0.931322574616D-08
    0.982188880841D+00 0.245468750000D+03 0.155517860691D+01-0.809783730743D-08
   -0.128933942045D-09 0.100000000000D+01 0.209100000000D+04 0.000000000000D+00
    0.200000000000D+01 0.000000000000D+00-0.153668224812D-07 0.840000000000D+02
    0.721800000000D+04 0.400000000000D+01 0.000000000000D+00 0.000000000000D+00
20 20  2  2  4  0  0.0 0.527847092599D-03 0.000000000000D+00 0.000000000000D+00
    0.310000000000D+02-0.188125000000D+02 0.537129516457D-08 0.127045837322D+01
   -0.102631747723D-05 0.506016972940D-02 0.608153641224D-05 0.515362156105D+04
    0.144000000000D+05 0.838190317154D-07-0.291904543910D+00-0.186264514923D-08
    0.933221652405D+00 0.243656250000D+03 0.257988776494D+01-0.848785355317D-08
    0.242867259253D-10 0.100000000000D+01 0.209100000000D+04 0.000000000000D+00
    0.200000000000D+01 0.000000000000D+00-0.884756445885D-08 0.310000000000D+02
    0.973800000000D+04 0.400000000000D+01 0.000000000000D+00 0.000000000000D+00
21 20  2  2  4  0  0.0-0.470126979053D-04 0.545696821064D-11 0.000000000000D+00
    0.780000000000D+02-0.231250000000D+02 0.492949104737D-08-0.840081555512D-01
   -0.110454857349D-05 0.248418906704D-01 0.833719968796D-05 0.515356808281D+04
    0.144000000000D+05-0.340864062309D-06-0.127409125378D+01-0.122934579849D-06
    0.951511014733D+00 0.221312500000D+03-0.136980699350D+01-0.868429030698D-08
    0.203222750758D-09 0.100000000000D+01 0.209100000000D+04 0.000000000000D+00
    0.200000000000D+01 0.000000000000D+00-0.102445483208D-07 0.780000000000D+02
    0.721800000000D+04 0.400000000000D+01 0.000000000000D+00 0.000000000000D+00
22 20  2  2  4  0  0.0-0.783680938184D-03-0.909494701773D-12 0.000000000000D+00
    0.500000000000D+01-0.202500000000D+02 0.536022327482D-08 0.300734453819D+01
   -0.107660889625D-05 0.704899418633D-02 0.611692667007D-05 0.515358350754D+04
    0.144000000000D+05 0.130385160446D-06-0.244072702288D+00 0.108033418655D-06
    0.929935266919D+00 0.241906250000D+03-0.123166696595D+01-0.841392190219D-08
    0.585738684082D-10 0.100000000000D+01 0.209100000000D+04 0.000000000000D+00
    0.200000000000D+01 0.000000000000D+00-0.181607902050D-07 0.500000000000D+01
    0.721800000000D+04 0.400000000000D+01 0.000000000000D+00 0.000000000000D+00
23 20  2  2  4  0  0.0-0.139134004712D-03 0.250111042988D-11 0.000000000000D+00
    0.480000000000D+02-0.198750000000D+02 0.482770109313D-08 0.247671796607D+01
   -0.123307108879D-05 0.133985481225D-01 0.871717929840D-05 0.515367673492D+04
    0.144000000000D+05 0.745058059692D-08 0.861670646601D+00-0.204890966415D-06
    0.943382945332D+00 0.200750000000D+03-0.220251188115D+01-0.797426073140D-08
   -0.151077721565D-09 0.100000000000D+01 0.209100000000D+04 0.000000000000D+00
    0.200000000000D+01 0.000000000000D+00-0.200234353542D-07 0.480000000000D+02
    0.721800000000D+04 0.400000000000D+01 0.000000000000D+00 0.000000000000D+00
24 20  2  2  4  0  0.0-0.843312591314D-05-0.568434188608D-12 0.000000000000D+00
    0.880000000000D+02 0.602187500000D+02 0.498735060031D-08 0.198522081136D+01
    0.306591391563D-05 0.949498137925D-02 0.944547355175D-05 0.515366688156D+04
    0.144000000000D+05-0.197440385819D-06 0.187398021194D+01-0.242143869400D-07
    0.936739844574D+00 0.183218750000D+03 0.655622124196D+00-0.829498837670D-08
    0.275011455331D-10 0.100000000000D+01 0.209100000000D+04 0.000000000000D+00
    0.282842707634D+01 0.000000000000D+00 0.279396772385D-08 0.880000000000D+02
    0.722300000000D+04 0.400000000000D+01 0.000000000000D+00 0.000000000000D+00
25 20  2  2  4  0  0.0-0.145020894706D-04 0.113686837722D-11 0.000000000000D+00
    0.610000000000D+02 0.408750000000D+02 0.463983612494D-08 0.976683008710D-01
    0.208057463169D-05 0.901681208052D-02 0.522285699844D-05 0.515359698105D+04
    0.144000000000D+05-0.372529029846D-07 0.298098813209D+01 0.121071934700D-06
    0.967355785360D+00 0.286187500000D+03 0.894337978892D+00-0.838249202158D-08
    0.175007289756D-10 0.100000000000D+01 0.209100000000D+04 0.000000000000D+00
    0.200000000000D+01 0.000000000000D+00 0.558793544769D-08 0.610000000000D+02
    0.121990000000D+05 0.400000000000D+01 0.000000000000D+00 0.000000000000D+00
26 20  2  2  4  0  0.0 0.139838550240D-03 0.784439180279D-11 0.000000000000D+00
    0.450000000000D+02 0.380000000000D+02 0.495770650838D-08-0.548482013929D+00
    0.201910734177D-05 0.460298254620D-02 0.495649874210D-05 0.515373906898D+04
    0.144000000000D+05 0.689178705216D-07 0.294784706157D+01 0.279396772385D-07
    0.948483966587D+00 0.273875000000D+03 0.186114629496D+00-0.844356599413D-08
    0.382158775590D-10 0.100000000000D+01 0.209100000000D+04 0.000000000000D+00
    0.200000000000D+01 0.000000000000D+00 0.745058059692D-08 0.450000000000D+02
    0.721800000000D+04 0.400000000000D+01 0.000000000000D+00 0.000000000000D+00
27 20  2  2  4  0  0.0-0.198977068067D-03-0.111413100967D-10 0.000000000000D+00
    0.420000000000D+02-0.336562500000D+02 0.418374569837D-08-0.233200160681D+01
   -0.192783772945D-05 0.777206744533D-02 0.684708356857D-05 0.515365950966D+04
    0.144000000000D+05 0.372529029846D-07-0.225884387807D+01-0.169500708580D-06
    0.978408109505D+00 0.257343750000D+03 0.499621884263D+00-0.791282960111D-08
   -0.142863093678D-11 0.100000000000D+01 0.209100000000D+04 0.000000000000D+00
    0.200000000000D+01 0.000000000000D+00 0.139698386192D-08 0.420000000000D+02
    0.721800000000D+04 0.400000000000D+01 0.000000000000D+00 0.000000000000D+00
28 20  2  2  4  0  0.0 0.741771887988D-03-0.227373675443D-11 0.000000000000D+00
    0.590000000000D+02 0.278125000000D+02 0.423946230491D-08-0.162669276327D+01
    0.191107392311D-05 0.187412414234D-01 0.534020364284D-05 0.515366873550D+04
    0.144000000000D+05-0.707805156708D-07 0.307109952481D+01 0.445172190666D-06
    0.979300665083D+00 0.288093750000D+03-0.141781234160D+01-0.803962059675D-08
   -0.121433629627D-10 0.100000000000D+01 0.209100000000D+04 0.000000000000D+00
    0.200000000000D+01 0.000000000000D+00-0.111758708954D-07 0.590000000000D+02
    0.721800000000D+04 0.400000000000D+01 0.000000000000D+00 0.000000000000D+00
30 20  2  2  4  0  0.0-0.143358018249D-03-0.898126018001D-11 0.000000000000D+00
    0.900000000000D+01 0.583125000000D+02 0.494806324955D-08 0.104149975787D+01
    0.309199094772D-05 0.422844639979D-02 0.815466046333D-05 0.515369632340D+04
    0.144000000000D+05-0.465661287308D-07 0.196862379802D+01 0.132247805595D-06
    0.938893688622D+00 0.210875000000D+03-0.293512634665D+01-0.826141554969D-08
    0.153577825704D-10 0.100000000000D+01 0.209100000000D+04 0.000000000000D+00
    0.200000000000D+01 0.000000000000D+00 0.372529029846D-08 0.900000000000D+01
    0.721800000000D+04 0.400000000000D+01 0.000000000000D+00 0.000000000000D+00
